ONEWEB-0275             
1 48993U 21060AC  25082.56744840 -.00000250  00000+0 -68735-3 0  9997
2 48993  87.9075 318.6061 0001814  79.8143 280.3193 13.16593649180262
ONEWEB-0276             
1 48994U 21060AD  25082.90468375  .00000027  00000+0  36712-4 0  9993
2 48994  87.9076 318.5357 0001779  72.1567 287.9758 13.16589356181628
ONEWEB-0277             
1 48995U 21060AE  25082.61336990 -.00000131  00000+0 -37586-3 0  9996
2 48995  87.9074 318.6308 0002122  74.0702 286.0662 13.16593026180272
ONEWEB-0278             
1 48996U 21060AF  25082.14788577  .00000077  00000+0  16764-3 0  9999
2 48996  87.9078 318.6832 0001486  78.4440 281.6857 13.16592724180347
ONEWEB-0279             
1 48997U 21060AG  25082.61177470  .00000008  00000+0 -11444-4 0  9992
2 48997  87.9073 318.5870 0002084  78.0325 282.1039 13.16592187180337
ONEWEB-0280             
1 48998U 21060AH  25082.62682826  .00000066  00000+0  13889-3 0  9997
2 48998  87.9075 318.5895 0001698  68.4917 291.6395 13.16595857180277
ONEWEB-0281             
1 48999U 21060AJ  25082.63235903 -.00000305  00000+0 -83195-3 0  9994
2 48999  87.9074 318.5871 0001803  85.9127 274.2210 13.16593908180342
ONEWEB-0282             
1 49000U 21060AK  25082.58646026 -.00000114  00000+0 -33065-3 0  9993
2 49000  87.9079 318.6129 0001823  73.7563 286.3768 13.16594274180315
